CCSDS_OMM_VERS = 2.0
CREATION_DATE  = 
ORIGINATOR     = 

OBJECT_NAME    = COSMOS 1933
OBJECT_ID      = 1988-020A
CENTER_NAME    = EARTH
REF_FRAME      = TEME
TIME_SYSTEM    = UTC
MEAN_ELEMENT_THEORY = SGP/SGP4

EPOCH          = 2025-12-20T00:11:31.235424
MEAN_MOTION    = 15.17165527
ECCENTRICITY   = .0006213
INCLINATION    = 82.5134
RA_OF_ASC_NODE = 329.6964
ARG_OF_PERICENTER = 108.8807
MEAN_ANOMALY   = 251.3101

EPHEMERIS_TYPE = 0
CLASSIFICATION_TYPE = U
NORAD_CAT_ID   = 18958
ELEMENT_SET_NO = 999
REV_AT_EPOCH   = 3814
BSTAR          = .17269E-3
MEAN_MOTION_DOT = .3459E-4
MEAN_MOTION_DDOT = 0

CCSDS_OMM_VERS = 2.0
CREATION_DATE  = 
ORIGINATOR     = 

OBJECT_NAME    = SL-3 R/B
OBJECT_ID      = 1988-032B
CENTER_NAME    = EARTH
REF_FRAME      = TEME
TIME_SYSTEM    = UTC
MEAN_ELEMENT_THEORY = SGP/SGP4

EPOCH          = 2025-12-20T01:01:49.437120
MEAN_MOTION    = 15.18809052
ECCENTRICITY   = .0027496
INCLINATION    = 97.5082
RA_OF_ASC_NODE = 332.7129
ARG_OF_PERICENTER = 147.9969
MEAN_ANOMALY   = 212.2942

EPHEMERIS_TYPE = 0
CLASSIFICATION_TYPE = U
NORAD_CAT_ID   = 19046
ELEMENT_SET_NO = 999
REV_AT_EPOCH   = 4001
BSTAR          = .16767E-3
MEAN_MOTION_DOT = .3453E-4
MEAN_MOTION_DDOT = 0

CCSDS_OMM_VERS = 2.0
CREATION_DATE  = 
ORIGINATOR     = 

OBJECT_NAME    = SL-16 R/B
OBJECT_ID      = 1988-039B
CENTER_NAME    = EARTH
REF_FRAME      = TEME
TIME_SYSTEM    = UTC
MEAN_ELEMENT_THEORY = SGP/SGP4

EPOCH          = 2025-12-20T03:29:46.383072
MEAN_MOTION    = 14.19598030
ECCENTRICITY   = .0019586
INCLINATION    = 71.0134
RA_OF_ASC_NODE = 236.7395
ARG_OF_PERICENTER = 103.5986
MEAN_ANOMALY   = 256.7322

EPHEMERIS_TYPE = 0
CLASSIFICATION_TYPE = U
NORAD_CAT_ID   = 19120
ELEMENT_SET_NO = 999
REV_AT_EPOCH   = 94709
BSTAR          = .11065E-3
MEAN_MOTION_DOT = .186E-5
MEAN_MOTION_DDOT = 0

CCSDS_OMM_VERS = 2.0
CREATION_DATE  = 
ORIGINATOR     = 

OBJECT_NAME    = COSMOS 1953
OBJECT_ID      = 1988-050A
CENTER_NAME    = EARTH
REF_FRAME      = TEME
TIME_SYSTEM    = UTC
MEAN_ELEMENT_THEORY = SGP/SGP4

EPOCH          = 2025-12-17T18:00:23.829120
MEAN_MOTION    = 15.26995692
ECCENTRICITY   = .00135407
INCLINATION    = 82.5093
RA_OF_ASC_NODE = 240.5536
ARG_OF_PERICENTER = 56.0210
MEAN_ANOMALY   = 304.2313

EPHEMERIS_TYPE = 0
CLASSIFICATION_TYPE = U
NORAD_CAT_ID   = 19210
ELEMENT_SET_NO = 999
REV_AT_EPOCH   = 2527
BSTAR          = .17925093E-3
MEAN_MOTION_DOT = .4793E-4
MEAN_MOTION_DDOT = 0

CCSDS_OMM_VERS = 2.0
CREATION_DATE  = 
ORIGINATOR     = 

OBJECT_NAME    = SL-8 R/B
OBJECT_ID      = 1988-053B
CENTER_NAME    = EARTH
REF_FRAME      = TEME
TIME_SYSTEM    = UTC
MEAN_ELEMENT_THEORY = SGP/SGP4

EPOCH          = 2025-12-20T04:56:35.077920
MEAN_MOTION    = 14.38863377
ECCENTRICITY   = .0018958
INCLINATION    = 74.0473
RA_OF_ASC_NODE = 258.9596
ARG_OF_PERICENTER = 100.2541
MEAN_ANOMALY   = 52.7634

EPHEMERIS_TYPE = 0
CLASSIFICATION_TYPE = U
NORAD_CAT_ID   = 19257
ELEMENT_SET_NO = 999
REV_AT_EPOCH   = 96516
BSTAR          = .68588E-4
MEAN_MOTION_DOT = .185E-5
MEAN_MOTION_DDOT = 0

CCSDS_OMM_VERS = 2.0
CREATION_DATE  = 
ORIGINATOR     = 

OBJECT_NAME    = INTERCOSMOS 24
OBJECT_ID      = 1989-080A
CENTER_NAME    = EARTH
REF_FRAME      = TEME
TIME_SYSTEM    = UTC
MEAN_ELEMENT_THEORY = SGP/SGP4

EPOCH          = 2025-12-20T01:16:45.056064
MEAN_MOTION    = 12.59451493
ECCENTRICITY   = .1188962
INCLINATION    = 82.6050
RA_OF_ASC_NODE = 156.1979
ARG_OF_PERICENTER = 117.5616
MEAN_ANOMALY   = 255.1299

EPHEMERIS_TYPE = 0
CLASSIFICATION_TYPE = U
NORAD_CAT_ID   = 20261
ELEMENT_SET_NO = 999
REV_AT_EPOCH   = 65677
BSTAR          = .14711E-3
MEAN_MOTION_DOT = .531E-5
MEAN_MOTION_DDOT = 0

CCSDS_OMM_VERS = 2.0
CREATION_DATE  = 
ORIGINATOR     = 

OBJECT_NAME    = SL-14 R/B
OBJECT_ID      = 1989-080C
CENTER_NAME    = EARTH
REF_FRAME      = TEME
TIME_SYSTEM    = UTC
MEAN_ELEMENT_THEORY = SGP/SGP4

EPOCH          = 2025-12-20T02:30:54.434880
MEAN_MOTION    = 12.50419167
ECCENTRICITY   = .1230538
INCLINATION    = 82.5921
RA_OF_ASC_NODE = 224.2930
ARG_OF_PERICENTER = 6.7590
MEAN_ANOMALY   = 354.8495

EPHEMERIS_TYPE = 0
CLASSIFICATION_TYPE = U
NORAD_CAT_ID   = 20262
ELEMENT_SET_NO = 999
REV_AT_EPOCH   = 65020
BSTAR          = .82672E-4
MEAN_MOTION_DOT = .289E-5
MEAN_MOTION_DDOT = 0

CCSDS_OMM_VERS = 2.0
CREATION_DATE  = 
ORIGINATOR     = 

OBJECT_NAME    = ARIANE 40 R/B
OBJECT_ID      = 1990-005H
CENTER_NAME    = EARTH
REF_FRAME      = TEME
TIME_SYSTEM    = UTC
MEAN_ELEMENT_THEORY = SGP/SGP4

EPOCH          = 2025-12-20T04:12:10.444032
MEAN_MOTION    = 14.39803717
ECCENTRICITY   = .0011283
INCLINATION    = 98.3234
RA_OF_ASC_NODE = 52.1427
ARG_OF_PERICENTER = 85.7096
MEAN_ANOMALY   = 274.5381

EPHEMERIS_TYPE = 0
CLASSIFICATION_TYPE = U
NORAD_CAT_ID   = 20443
ELEMENT_SET_NO = 999
REV_AT_EPOCH   = 88136
BSTAR          = .79046E-4
MEAN_MOTION_DOT = .206E-5
MEAN_MOTION_DDOT = 0

