COSMOS 1933             
1 18958U 88020A   25354.00800041  .00003459  00000+0  17269-3 0  9999
2 18958  82.5134 329.6964 0006213 108.8807 251.3101 15.17165527 38148
SL-3 R/B                
1 19046U 88032B   25354.04293330  .00003453  00000+0  16767-3 0  9998
2 19046  97.5082 332.7129 0027496 147.9969 212.2942 15.18809052 40019
SL-16 R/B               
1 19120U 88039B   25354.14567573  .00000186  00000+0  11065-3 0  9998
2 19120  71.0134 236.7395 0019586 103.5986 256.7322 14.19598030947093
COSMOS 1953             
1 19210U 88050A   25351.75027580  .00004793  00000+0  17925-3 0  9993
2 19210  82.5093 240.5536 0013540  56.0210 304.2313 15.26995692 25270
SL-8 R/B                
1 19257U 88053B   25354.20596155  .00000185  00000+0  68588-4 0  9992
2 19257  74.0473 258.9596 0018958 100.2541  52.7634 14.38863377965163
INTERCOSMOS 24          
1 20261U 89080A   25354.05329926  .00000531  00000+0  14711-3 0  9996
2 20261  82.6050 156.1979 1188962 117.5616 255.1299 12.59451493656771
SL-14 R/B               
1 20262U 89080C   25354.10479670  .00000289  00000+0  82672-4 0  9997
2 20262  82.5921 224.2930 1230538   6.7590 354.8495 12.50419167650209
ARIANE 40 R/B           
1 20443U 90005H   25354.17512088  .00000206  00000+0  79046-4 0  9995
2 20443  98.3234  52.1427 0011283  85.7096 274.5381 14.39803717881364
